[{"OBJECT_NAME":"STARLINK-5642","OBJECT_ID":"2023-014AR","EPOCH":"2026-03-09T12:13:30.893376","MEAN_MOTION":14.98330981,"ECCENTRICITY":0.0002864,"INCLINATION":69.9989,"RA_OF_ASC_NODE":104.8346,"ARG_OF_PERICENTER":270.1716,"MEAN_ANOMALY":89.9115,"EPHEMERIS_TYPE":0,"CLASSIFICATION_TYPE":"U","NORAD_CAT_ID":55430,"ELEMENT_SET_NO":999,"REV_AT_EPOCH":17104,"BSTAR":-1.6057565e-5,"MEAN_MOTION_DOT":-2.85e-6,"MEAN_MOTION_DDOT":0},{"OBJECT_NAME":"THOR ABLESTAR DEB","OBJECT_ID":"1961-015FQ","EPOCH":"2026-03-09T11:46:19.148160","MEAN_MOTION":14.93919582,"ECCENTRICITY":0.00285609,"INCLINATION":66.0574,"RA_OF_ASC_NODE":102.4005,"ARG_OF_PERICENTER":353.0053,"MEAN_ANOMALY":7.0669,"EPHEMERIS_TYPE":0,"CLASSIFICATION_TYPE":"U","NORAD_CAT_ID":478,"ELEMENT_SET_NO":999,"REV_AT_EPOCH":36928,"BSTAR":0.0013681176,"MEAN_MOTION_DOT":0.00014607,"MEAN_MOTION_DDOT":0}]
